{"type": "FeatureCollection", "features": [ {"type": "Feature", "properties": {"norad_id": 66622, "name": "STARLINK-35950", "group": "last-30-days", "lat": 53.05163442114631, "lon": -34.381404057349485, "alt_km": 313.5852837949469, "timestamp": "2025-12-03T19:33:05.757851+00:00", "meta": {"OBJECT_NAME": "STARLINK-35950", "OBJECT_ID": "2025-271F", "EPOCH": "2025-12-02T16:00:03.000096", "MEAN_MOTION": 15.8660772, "ECCENTRICITY": 4.99e-05, "INCLINATION": 53.158, "RA_OF_ASC_NODE": 236.8757, "ARG_OF_PERICENTER": 95.0276, "MEAN_ANOMALY": 284.1248, "EPHEMERIS_TYPE": 0, "CLASSIFICATION_TYPE": "U", "NORAD_CAT_ID": 66622, "ELEMENT_SET_NO": 999, "REV_AT_EPOCH": 262, "BSTAR": -0.0061134, "MEAN_MOTION_DOT": -0.01385835, "MEAN_MOTION_DDOT": 0}, "tle": {"line1": "1 66622U 25271F   25336.66670139 -.01385835  00000+0 -61134-2 0  9997", "line2": "2 66622  53.1580 236.8757 0000499  95.0276 284.1248 15.86607720  2626"}}, "geometry": {"type": "Point", "coordinates": [-34.381404057349485, 53.05163442114631]}}, {"type": "Feature", "properties": {"norad_id": 66623, "name": "STARLINK-35920", "group": "last-30-days", "lat": 52.61072276239771, "lon": -27.755175127706025, "alt_km": 313.4849511943239, "timestamp": "2025-12-03T19:33:05.757863+00:00", "meta": {"OBJECT_NAME": "STARLINK-35920", "OBJECT_ID": "2025-271G", "EPOCH": "2025-12-02T16:00:03.000096", "MEAN_MOTION": 15.86675946, "ECCENTRICITY": 6.32e-05, "INCLINATION": 53.1579, "RA_OF_ASC_NODE": 236.8677, "ARG_OF_PERICENTER": 109.9501, "MEAN_ANOMALY": 273.0195, "EPHEMERIS_TYPE": 0, "CLASSIFICATION_TYPE": "U", "NORAD_CAT_ID": 66623, "ELEMENT_SET_NO": 999, "REV_AT_EPOCH": 262, "BSTAR": -0.0061591, "MEAN_MOTION_DOT": -0.01399066, "MEAN_MOTION_DDOT": 0}, "tle": {"line1": "1 66623U 25271G   25336.66670139 -.01399066  00000+0 -61591-2 0  9996", "line2": "2 66623  53.1579 236.8677 0000632 109.9501 273.0195 15.86675946  2624"}}, "geometry": {"type": "Point", "coordinates": [-27.755175127706025, 52.61072276239771]}}, {"type": "Feature", "properties": {"norad_id": 66624, "name": "STARLINK-35927", "group": "last-30-days", "lat": 52.87954824451983, "lon": -31.08426504046679, "alt_km": 313.5464343157373, "timestamp": "2025-12-03T19:33:05.757875+00:00", "meta": {"OBJECT_NAME": "STARLINK-35927", "OBJECT_ID": "2025-271H", "EPOCH": "2025-12-02T16:00:03.000096", "MEAN_MOTION": 15.86640895, "ECCENTRICITY": 5.34e-05, "INCLINATION": 53.1579, "RA_OF_ASC_NODE": 236.8716, "ARG_OF_PERICENTER": 100.072, "MEAN_ANOMALY": 280.9753, "EPHEMERIS_TYPE": 0, "CLASSIFICATION_TYPE": "U", "NORAD_CAT_ID": 66624, "ELEMENT_SET_NO": 999, "REV_AT_EPOCH": 262, "BSTAR": -0.0061391, "MEAN_MOTION_DOT": -0.01392931, "MEAN_MOTION_DDOT": 0}, "tle": {"line1": "1 66624U 25271H   25336.66670139 -.01392931  00000+0 -61391-2 0  9999", "line2": "2 66624  53.1579 236.8716 0000534 100.0720 280.9753 15.86640895  2627"}}, "geometry": {"type": "Point", "coordinates": [-31.08426504046679, 52.87954824451983]}}, {"type": "Feature", "properties": {"norad_id": 66625, "name": "STARLINK-35929", "group": "last-30-days", "lat": 52.14694815641071, "lon": -23.676312761996996, "alt_km": 313.5130726276111, "timestamp": "2025-12-03T19:33:05.757885+00:00", "meta": {"OBJECT_NAME": "STARLINK-35929", "OBJECT_ID": "2025-271J", "EPOCH": "2025-12-02T16:00:03.000096", "MEAN_MOTION": 15.86692566, "ECCENTRICITY": 6.47e-05, "INCLINATION": 53.1578, "RA_OF_ASC_NODE": 236.8624, "ARG_OF_PERICENTER": 107.5282, "MEAN_ANOMALY": 277.9373, "EPHEMERIS_TYPE": 0, "CLASSIFICATION_TYPE": "U", "NORAD_CAT_ID": 66625, "ELEMENT_SET_NO": 999, "REV_AT_EPOCH": 262, "BSTAR": -0.0061849, "MEAN_MOTION_DOT": -0.01405175, "MEAN_MOTION_DDOT": 0}, "tle": {"line1": "1 66625U 25271J   25336.66670139 -.01405175  00000+0 -61849-2 0  9993", "line2": "2 66625  53.1578 236.8624 0000647 107.5282 277.9373 15.86692566  2621"}}, "geometry": {"type": "Point", "coordinates": [-23.676312761996996, 52.14694815641071]}}, {"type": "Feature", "properties": {"norad_id": 66626, "name": "STARLINK-35902", "group": "last-30-days", "lat": 51.56401331723977, "lon": -19.80342934555615, "alt_km": 313.6106539481825, "timestamp": "2025-12-03T19:33:05.757895+00:00", "meta": {"OBJECT_NAME": "STARLINK-35902", "OBJECT_ID": "2025-271K", "EPOCH": "2025-12-02T16:00:03.000096", "MEAN_MOTION": 15.86719001, "ECCENTRICITY": 6.58e-05, "INCLINATION": 53.1578, "RA_OF_ASC_NODE": 236.8575, "ARG_OF_PERICENTER": 110.0104, "MEAN_ANOMALY": 277.886, "EPHEMERIS_TYPE": 0, "CLASSIFICATION_TYPE": "U", "NORAD_CAT_ID": 66626, "ELEMENT_SET_NO": 999, "REV_AT_EPOCH": 262, "BSTAR": -0.0062488, "MEAN_MOTION_DOT": -0.01419385, "MEAN_MOTION_DDOT": 0}, "tle": {"line1": "1 66626U 25271K   25336.66670139 -.01419385  00000+0 -62488-2 0  9992", "line2": "2 66626  53.1578 236.8575 0000658 110.0104 277.8860 15.86719001  2625"}}, "geometry": {"type": "Point", "coordinates": [-19.80342934555615, 51.56401331723977]}}, {"type": "Feature", "properties": {"norad_id": 66627, "name": "STARLINK-35904", "group": "last-30-days", "lat": 50.827769688178506, "lon": -15.901117707836123, "alt_km": 313.76319488334775, "timestamp": "2025-12-03T19:33:05.757905+00:00", "meta": {"OBJECT_NAME": "STARLINK-35904", "OBJECT_ID": "2025-271L", "EPOCH": "2025-12-02T16:00:03.000096", "MEAN_MOTION": 15.86735143, "ECCENTRICITY": 5.59e-05, "INCLINATION": 53.1576, "RA_OF_ASC_NODE": 236.8519, "ARG_OF_PERICENTER": 104.1205, "MEAN_ANOMALY": 286.2982, "EPHEMERIS_TYPE": 0, "CLASSIFICATION_TYPE": "U", "NORAD_CAT_ID": 66627, "ELEMENT_SET_NO": 999, "REV_AT_EPOCH": 246, "BSTAR": -0.0062783, "MEAN_MOTION_DOT": -0.01426126, "MEAN_MOTION_DDOT": 0}, "tle": {"line1": "1 66627U 25271L   25336.66670139 -.01426126  00000+0 -62783-2 0  9992", "line2": "2 66627  53.1576 236.8519 0000559 104.1205 286.2982 15.86735143  2464"}}, "geometry": {"type": "Point", "coordinates": [-15.901117707836123, 50.827769688178506]}}, {"type": "Feature", "properties": {"norad_id": 66628, "name": "STARLINK-35862", "group": "last-30-days", "lat": 50.06616512374731, "lon": -12.536765433584533, "alt_km": 313.8453948787155, "timestamp": "2025-12-03T19:33:05.757917+00:00", "meta": {"OBJECT_NAME": "STARLINK-35862", "OBJECT_ID": "2025-271M", "EPOCH": "2025-12-02T16:00:03.000096", "MEAN_MOTION": 15.86761696, "ECCENTRICITY": 5.41e-05, "INCLINATION": 53.1577, "RA_OF_ASC_NODE": 236.8477, "ARG_OF_PERICENTER": 96.8821, "MEAN_ANOMALY": 295.7339, "EPHEMERIS_TYPE": 0, "CLASSIFICATION_TYPE": "U", "NORAD_CAT_ID": 66628, "ELEMENT_SET_NO": 999, "REV_AT_EPOCH": 262, "BSTAR": -0.006303, "MEAN_MOTION_DOT": -0.01432606, "MEAN_MOTION_DDOT": 0}, "tle": {"line1": "1 66628U 25271M   25336.66670139 -.01432606  00000+0 -63030-2 0  9999", "line2": "2 66628  53.1577 236.8477 0000541  96.8821 295.7339 15.86761696  2622"}}, "geometry": {"type": "Point", "coordinates": [-12.536765433584533, 50.06616512374731]}}, {"type": "Feature", "properties": {"norad_id": 66629, "name": "STARLINK-35956", "group": "last-30-days", "lat": 49.16793898382481, "lon": -9.135783597210995, "alt_km": 314.00104997804283, "timestamp": "2025-12-03T19:33:05.757927+00:00", "meta": {"OBJECT_NAME": "STARLINK-35956", "OBJECT_ID": "2025-271N", "EPOCH": "2025-12-02T16:00:03.000096", "MEAN_MOTION": 15.86788757, "ECCENTRICITY": 5.13e-05, "INCLINATION": 53.1576, "RA_OF_ASC_NODE": 236.8428, "ARG_OF_PERICENTER": 107.0461, "MEAN_ANOMALY": 287.9009, "EPHEMERIS_TYPE": 0, "CLASSIFICATION_TYPE": "U", "NORAD_CAT_ID": 66629, "ELEMENT_SET_NO": 999, "REV_AT_EPOCH": 262, "BSTAR": -0.0063518, "MEAN_MOTION_DOT": -0.01443853, "MEAN_MOTION_DDOT": 0}, "tle": {"line1": "1 66629U 25271N   25336.66670139 -.01443853  00000+0 -63518-2 0  9997", "line2": "2 66629  53.1576 236.8428 0000513 107.0461 287.9009 15.86788757  2626"}}, "geometry": {"type": "Point", "coordinates": [-9.135783597210995, 49.16793898382481]}}, {"type": "Feature", "properties": {"norad_id": 66630, "name": "STARLINK-35949", "group": "last-30-days", "lat": 48.2754443019331, "lon": -6.179931326320813, "alt_km": 313.9587458950773, "timestamp": "2025-12-03T19:33:05.757938+00:00", "meta": {"OBJECT_NAME": "STARLINK-35949", "OBJECT_ID": "2025-271P", "EPOCH": "2025-12-02T16:00:03.000096", "MEAN_MOTION": 15.86820273, "ECCENTRICITY": 6.98e-05, "INCLINATION": 53.1575, "RA_OF_ASC_NODE": 236.8382, "ARG_OF_PERICENTER": 114.0731, "MEAN_ANOMALY": 282.9235, "EPHEMERIS_TYPE": 0, "CLASSIFICATION_TYPE": "U", "NORAD_CAT_ID": 66630, "ELEMENT_SET_NO": 999, "REV_AT_EPOCH": 262, "BSTAR": -0.0063737, "MEAN_MOTION_DOT": -0.01450251, "MEAN_MOTION_DDOT": 0}, "tle": {"line1": "1 66630U 25271P   25336.66670139 -.01450251  00000+0 -63737-2 0  9992", "line2": "2 66630  53.1575 236.8382 0000698 114.0731 282.9235 15.86820273  2624"}}, "geometry": {"type": "Point", "coordinates": [-6.179931326320813, 48.2754443019331]}}, {"type": "Feature", "properties": {"norad_id": 66631, "name": "STARLINK-35965", "group": "last-30-days", "lat": 47.413693403385196, "lon": -3.6215291096597877, "alt_km": 314.12179647782705, "timestamp": "2025-12-03T19:33:05.757948+00:00", "meta": {"OBJECT_NAME": "STARLINK-35965", "OBJECT_ID": "2025-271Q", "EPOCH": "2025-12-02T16:00:03.000096", "MEAN_MOTION": 15.86856973, "ECCENTRICITY": 5.39e-05, "INCLINATION": 53.1575, "RA_OF_ASC_NODE": 236.8346, "ARG_OF_PERICENTER": 98.141, "MEAN_ANOMALY": 300.6509, "EPHEMERIS_TYPE": 0, "CLASSIFICATION_TYPE": "U", "NORAD_CAT_ID": 66631, "ELEMENT_SET_NO": 999, "REV_AT_EPOCH": 262, "BSTAR": -0.0063895, "MEAN_MOTION_DOT": -0.01455528, "MEAN_MOTION_DDOT": 0}, "tle": {"line1": "1 66631U 25271Q   25336.66670139 -.01455528  00000+0 -63895-2 0  9990", "line2": "2 66631  53.1575 236.8346 0000539  98.1410 300.6509 15.86856973  2623"}}, "geometry": {"type": "Point", "coordinates": [-3.6215291096597877, 47.413693403385196]}}]}